{
    "CCSDS_OMM_VERS": "3.0",
    "COMMENT": "GENERATED VIA SPACE-TRACK.ORG API",
    "CREATION_DATE": "2025-11-23T14:26:32",
    "ORIGINATOR": "18 SPCS",
    "OBJECT_NAME": "GALILEO 15 (267)",
    "OBJECT_ID": "2016-069A",
    "CENTER_NAME": "EARTH",
    "REF_FRAME": "TEME",
    "TIME_SYSTEM": "UTC",
    "MEAN_ELEMENT_THEORY": "SGP4",
    "EPOCH": "2025-11-22T06:26:00.182688",
    "MEAN_MOTION": "1.70474345",
    "ECCENTRICITY": "0.00019970",
    "INCLINATION": "55.3701",
    "RA_OF_ASC_NODE": "106.8172",
    "ARG_OF_PERICENTER": "330.6372",
    "MEAN_ANOMALY": "29.3141",
    "EPHEMERIS_TYPE": "0",
    "CLASSIFICATION_TYPE": "U",
    "NORAD_CAT_ID": "41859",
    "ELEMENT_SET_NO": "999",
    "REV_AT_EPOCH": "5587",
    "BSTAR": "0.00000000000000",
    "MEAN_MOTION_DOT": "0.00000033",
    "MEAN_MOTION_DDOT": "0.0000000000000",
    "SEMIMAJOR_AXIS": "29600.280",
    "PERIOD": "844.702",
    "APOAPSIS": "23228.056",
    "PERIAPSIS": "23216.234",
    "OBJECT_TYPE": "PAYLOAD",
    "RCS_SIZE": "LARGE",
    "COUNTRY_CODE": "ESA",
    "LAUNCH_DATE": "2016-11-17",
    "SITE": "FRGUI",
    "DECAY_DATE": null,
    "FILE": "4895637",
    "GP_ID": "303302581",
    "TLE_LINE0": "0 GALILEO 15 (267)",
    "TLE_LINE1": "1 41859U 16069A   25326.26805767  .00000033  00000-0  00000+0 0  9993",
    "TLE_LINE2": "2 41859  55.3701 106.8172 0001997 330.6372  29.3141  1.70474345 55875"
}